OBJECT_NAME,OBJECT_ID,EPOCH,MEAN_MOTION,ECCENTRICITY,INCLINATION,RA_OF_ASC_NODE,ARG_OF_PERICENTER,MEAN_ANOMALY,EPHEMERIS_TYPE,CLASSIFICATION_TYPE,NORAD_CAT_ID,ELEMENT_SET_NO,REV_AT_EPOCH,BSTAR,MEAN_MOTION_DOT,MEAN_MOTION_DDOT
WGS F6 (USA 244),2013-041A,2026-07-14T09:46:49.944864,1.00270285,.00004209,0.0181,38.8899,185.2273,79.6695,0,U,39222,999,4633,0,.82E-6,0
ES'HAIL 1,2013-044A,2026-07-14T13:32:21.158592,1.00274643,.0002153,0.0508,343.0754,133.9068,44.0708,0,U,39233,999,4690,0,.136E-5,0
GSAT-7,2013-044B,2026-07-14T13:46:05.037024,1.00271246,.00032309,0.1493,89.6248,176.7618,306.5171,0,U,39234,999,4553,0,-.84E-6,0
AMOS-4,2013-045A,2026-07-14T12:00:55.815264,1.00270495,.00021965,0.0317,255.5031,187.7092,94.3816,0,U,39237,999,4723,0,0,0
AEHF-3 (USA 246),2013-050A,2026-07-14T10:19:38.828064,1.00270855,.00884294,5.3587,66.9340,187.6856,68.3083,0,U,39256,999,4592,0,.18E-6,0
ASTRA 2E,2013-056A,2026-07-14T13:33:06.086592,1.00268726,.00026556,0.0776,312.4447,154.8307,56.9083,0,U,39285,999,4669,0,.142E-5,0
FM-6,2013-058A,2026-07-13T23:10:32.594592,1.00270909,.00013903,0.0142,33.4803,144.8411,344.7900,0,U,39360,999,4634,0,-.21E-6,0
RADUGA-1M 3,2013-062A,2026-07-14T14:52:51.470688,1.00271890,.00019542,6.0260,72.0019,272.7515,205.9141,0,U,39375,999,4638,0,.141E-5,0
SES-8,2013-071A,2026-07-14T13:52:04.461888,1.00270306,.00026098,0.0585,258.5578,216.2134,120.6771,0,U,39460,999,4470,0,-.277E-5,0
INMARSAT 5-F1,2013-073A,2026-07-14T15:36:49.386240,1.00270128,.0000561,0.0167,41.2280,260.6421,287.4739,0,U,39476,999,4585,0,.2E-6,0
TKSAT-1 (TUPAC KATARI),2013-075A,2026-07-14T13:00:09.245088,1.00270540,.00023564,0.0513,237.4506,232.3652,290.4244,0,U,39481,999,4587,0,-.202E-5,0
EXPRESS-AM5,2013-077A,2026-07-14T15:47:39.761376,1.00272526,.00001745,0.0210,299.7123,283.7551,86.0014,0,U,39487,999,4663,0,-.288E-5,0
GSAT-14,2014-001A,2026-07-14T13:46:05.037024,1.00270872,.00019054,0.0167,63.0636,150.1073,359.7450,0,U,39498,999,4565,0,-.84E-6,0
THAICOM 6,2014-002A,2026-07-14T13:47:27.404736,1.00272686,.0004241,0.0479,112.4253,12.7236,92.6343,0,U,39500,999,4573,0,-.129E-5,0
TDRS 12,2014-004A,2026-07-14T11:30:43.710048,1.00272655,.00043339,4.0043,19.5275,204.3062,200.3226,0,U,39504,999,4455,0,-.278E-5,0
ABS-2,2014-006A,2026-07-14T14:42:38.808288,1.00271226,.00032819,0.0160,355.7496,103.1732,129.1187,0,U,39508,999,4555,0,-.94E-6,0
ATHENA-FIDUS,2014-006B,2026-07-14T15:06:38.933856,1.00271208,.00012719,0.0228,99.7948,17.2877,79.8537,0,U,39509,999,4536,0,.146E-5,0
TURKSAT 4A,2014-007A,2026-07-14T15:06:38.933856,1.00272942,.00013452,0.0975,277.7970,323.6832,319.6679,0,U,39522,999,4524,0,.138E-5,0
EXPRESS-AT1,2014-010A,2026-07-14T15:26:25.134144,1.00308962,.0004405,0.3255,85.3236,55.9605,88.6325,0,U,39612,999,4509,0,-.16E-6,0
EXPRESS-AT2,2014-010B,2026-07-12T21:31:38.606304,1.00272197,.00006973,0.0246,37.9199,260.8694,10.9094,0,U,39613,999,4475,0,0,0
AMAZONAS 4A,2014-011A,2026-07-14T13:03:53.886816,1.00269674,.00046809,0.0593,197.2241,301.2423,275.9126,0,U,39616,999,4498,0,-.26E-5,0
ASTRA 5B,2014-011B,2026-07-14T13:31:43.718880,1.00267544,.00018237,0.0784,301.1954,179.3981,38.2496,0,U,39617,999,4494,0,.129E-5,0
IRNSS-1B,2014-017A,2026-07-14T05:07:18.574752,1.00275472,.00222943,28.8773,239.9367,191.6634,352.4343,0,U,39635,999,4506,0,.137E-5,0
LUCH-5V,2014-023A,2026-07-14T15:34:39.343872,1.00273829,.00020707,5.1975,69.4513,83.7373,107.6969,0,U,39727,999,4463,0,-.28E-5,0
KAZSAT-3,2014-023B,2026-07-13T10:19:16.320000,1.00270931,.0000353,0.0111,6.0561,273.1581,225.4035,0,U,39728,999,4272,0,.57E-6,0
EUTELSAT 3B,2014-030A,2026-07-14T13:25:44.293152,1.00270673,.00040818,0.0608,359.8136,115.2577,21.8653,0,U,39773,999,4434,0,.12E-6,0
ASIASAT 8 (AMOS-7),2014-046A,2026-07-14T14:41:12.037632,1.00267685,.00013409,0.0177,27.7710,100.6391,129.6282,0,U,40107,999,10242,0,-.34E-5,0
ASIASAT 6,2014-052A,2026-07-14T13:59:11.279616,1.00270746,.0000722,0.0173,47.8834,109.3513,104.9159,0,U,40141,999,4335,0,-.37E-5,0
OPTUS 10,2014-054A,2026-07-14T12:43:38.568864,1.00270675,.00019703,0.0289,274.7759,200.1428,164.3849,0,U,40146,999,4330,0,-.155E-5,0
MEASAT-3B,2014-054B,2026-07-14T07:00:20.406240,1.00269704,.00033445,0.0418,50.4787,18.1485,60.0938,0,U,40147,999,4318,0,-.248E-5,0
HIMAWARI-8,2014-060A,2026-07-14T14:05:07.738368,1.00271628,.00010792,0.0153,350.2375,179.2085,114.9510,0,U,40267,999,4303,0,-.283E-5,0
IRNSS-1C,2014-061A,2026-07-13T21:04:26.224320,1.00272548,.00221048,6.5834,88.4241,5.3275,237.1475,0,U,40269,999,4295,0,-.173E-5,0
INTELSAT 30 (IS-30),2014-062A,2026-07-13T19:51:12.292704,1.00270855,.00014688,0.0159,46.9890,332.6212,114.8422,0,U,40271,999,706,0,-.156E-5,0
ARSAT 1,2014-062B,2026-07-14T13:04:31.327392,1.00270066,.00017125,0.0400,289.0914,182.7785,304.8570,0,U,40272,999,4289,0,-.267E-5,0
EUTELSAT 53A,2014-064A,2026-07-14T15:22:47.980704,1.00267506,.00018708,0.0180,310.6717,244.9856,20.5371,0,U,40277,999,4184,0,.91E-6,0
GSAT-16,2014-078A,2026-07-14T01:42:06.352704,1.00272595,.000726,0.0209,41.7088,51.1336,279.7235,0,U,40332,999,4237,0,0,0
DIRECTV 14,2014-078B,2026-07-14T12:56:47.068224,1.00268294,.00006144,0.0122,43.3357,293.1812,50.8330,0,U,40333,999,4231,0,-.133E-5,0
YAMAL 401,2014-082A,2026-07-14T15:33:16.976160,1.00272675,.0000475,0.0092,91.3851,358.4460,165.9326,0,U,40345,999,4219,0,-.236E-5,0
ASTRA 2G,2014-089A,2026-07-14T13:33:06.086592,1.00267841,.00044841,0.0513,25.1713,48.8718,89.8620,0,U,40364,999,4224,0,.142E-5,0
FENGYUN 2G,2014-090A,2026-07-14T15:35:54.223296,1.00260242,.000418,5.7062,72.4815,153.2737,39.9240,0,U,40367,999,4227,0,-.309E-5,0
MUOS-3,2015-002A,2026-07-14T09:55:09.621120,1.00269764,.00534929,4.5717,43.6246,177.3566,204.5345,0,U,40374,999,4186,0,-.139E-5,0
INMARSAT 5-F2,2015-005A,2026-07-14T01:10:44.700672,1.00271790,.00002198,0.0177,29.1654,42.1473,183.2861,0,U,40384,999,4126,0,-.291E-5,0
ABS-3A,2015-010A,2026-07-14T03:08:17.232000,1.00275029,.00017603,0.0138,33.2338,40.5028,262.3603,0,U,40424,999,4164,0,-.32E-6,0
EUTELSAT 115 WEST B,2015-010B,2026-07-14T12:52:17.499360,1.00270654,.00004719,0.0077,199.5130,252.5017,278.5424,0,U,40425,999,4165,0,-.32E-6,0
EXPRESS-AM7,2015-012A,2026-07-14T15:06:38.933856,1.00269970,.00027014,0.0180,34.4596,86.2394,78.4288,0,U,40505,999,4128,0,.143E-5,0
BEIDOU-3S IGSO-1S,2015-019A,2026-07-02T19:12:21.705408,1.00680073,.00768606,49.1798,295.2769,219.1125,144.2493,0,U,40549,999,4123,0,-.19E-5,0
THOR 7,2015-022A,2026-07-14T09:59:24.214272,1.00271513,.00022944,0.0181,104.0664,11.3929,326.0041,0,U,40613,999,4108,0,-.16E-6,0
TURKMENALEM52E/MONACOSAT,2015-023A,2026-07-14T13:39:50.441184,1.00270868,.00025927,0.0296,82.6847,38.9782,67.7250,0,U,40617,999,4112,0,.96E-6,0
DIRECTV 15,2015-026A,2026-07-14T11:40:38.762400,1.00271654,.00000691,0.0174,71.8475,257.5366,35.2500,0,U,40663,999,4073,0,-.11E-5,0
SKY MEXICO-1,2015-026B,2026-07-14T13:02:31.518240,1.00270202,.00023494,0.0172,32.6899,103.2479,273.2909,0,U,40664,999,4072,0,-.242E-5,0
METEOSAT-11 (MSG-4),2015-034A,2026-07-14T06:37:00.143040,1.00271573,.00021903,3.2669,70.9389,353.9195,335.7800,0,U,40732,999,748,0,.52E-6,0
STAR ONE C4,2015-034B,2026-07-13T13:07:40.277280,1.00269962,.00011818,0.0373,314.5773,139.4866,324.2696,0,U,40733,999,4027,0,-.269E-5,0
WGS F7 (USA 263),2015-036A,2026-07-14T13:03:38.695968,1.00269629,.00000221,0.0126,34.1455,251.8672,17.3005,0,U,40746,999,4014,0,.9E-7,0
INTELSAT 34 (IS-34),2015-039A,2026-07-14T06:18:31.912704,1.00271009,.00005547,0.0110,352.6276,9.3806,329.2648,0,U,40874,999,3990,0,-.292E-5,0
EUTELSAT 8 WEST B,2015-039B,2026-07-14T13:22:37.092000,1.00271779,.00037988,0.0644,347.0651,120.8253,17.1824,0,U,40875,999,3993,0,-.73E-6,0
GSAT-6,2015-041A,2026-07-14T13:48:34.796736,1.00273299,.00030216,1.9876,82.2529,27.4867,112.3338,0,U,40880,999,3987,0,-.17E-5,0
INMARSAT 5-F3,2015-042A,2026-07-14T05:42:52.664256,1.00271087,.00004233,0.0175,36.2785,155.0311,6.0947,0,U,40882,999,3984,0,.43E-6,0
MUOS-4,2015-044A,2026-07-14T14:42:38.808288,1.00271187,.00565078,4.3801,42.3898,3.4201,182.3056,0,U,40887,999,3983,0,-.102E-5,0
TJS-1,2015-046A,2026-07-14T15:15:12.587904,1.00271399,.0005025,0.3920,84.7551,18.9033,212.6642,0,U,40892,999,3984,0,-.164E-5,0
EXPRESS-AM8,2015-048A,2026-07-14T01:22:23.242944,1.00270838,.00004071,0.0176,310.7018,17.0251,330.7860,0,U,40895,999,3961,0,-.118E-5,0
BEIDOU-3S IGSO-2S,2015-053A,2026-07-14T15:34:09.391584,1.00252727,.00662341,49.1797,258.4540,193.1070,167.8979,0,U,40938,999,3963,0,-.89E-6,0
SKY MUSTER 1 (NBN1A),2015-054A,2026-07-14T14:05:00.250080,1.00268777,.00016927,0.0172,26.2482,96.8607,160.8331,0,U,40940,999,3953,0,0,0
ARSAT 2,2015-054B,2026-07-14T13:01:54.077664,1.00270301,.00018286,0.0373,289.2236,177.5572,300.0931,0,U,40941,999,3957,0,-.232E-5,0
MORELOS 3,2015-056A,2026-07-14T12:52:47.450784,1.00273051,.00004136,3.2093,15.7641,147.3548,209.3946,0,U,40946,999,3955,0,-.52E-6,0
APSTAR-9,2015-059A,2026-07-14T15:48:09.712800,1.00271946,.00030762,0.0232,45.1261,142.8060,123.6382,0,U,40982,999,3939,0,-.274E-5,0
TURKSAT 4B,2015-060A,2026-07-14T10:14:00.313728,1.00272243,.0002355,0.0142,56.8159,63.4410,15.4936,0,U,40984,999,3937,0,.108E-5,0
ZHONGXING-2C,2015-063A,2026-07-14T15:02:06.717696,1.00287572,.0007387,0.3424,88.5870,98.3581,74.5203,0,U,41021,999,3925,0,-.334E-5,0
GSAT-15,2015-065A,2026-07-14T08:43:42.352896,1.00267881,.00035804,0.0277,63.4769,29.8725,63.3157,0,U,41028,999,3907,0,0,0
BADR-7 (ARABSAT-6B),2015-065B,2026-07-14T13:32:28.646880,1.00275170,.00051734,0.0171,250.6450,312.8032,318.1238,0,U,41029,999,3904,0,0,0
LAOSAT 1,2015-067A,2026-07-14T12:22:38.622720,1.00265433,.00021377,0.0193,272.7451,151.4473,182.3574,0,U,41034,999,3913,0,0,0
TELSTAR 12V,2015-068A,2026-07-14T09:55:24.596832,1.00269504,.00020924,0.0280,56.8709,53.9293,315.3427,0,U,41036,999,3889,0,0,0
ELEKTRO-L 2,2015-074A,2026-07-14T09:55:32.085120,1.00272099,.00010268,6.7595,70.1832,212.6794,143.7919,0,U,41105,999,3877,0,-.129E-5,0
